[{"OBJECT_NAME":"EINSTEIN PROBE","OBJECT_ID":"2024-007A","EPOCH":"2026-03-09T14:28:05.763072","MEAN_MOTION":15.01336938,"ECCENTRICITY":0.0009522,"INCLINATION":28.998,"RA_OF_ASC_NODE":140.909,"ARG_OF_PERICENTER":248.3814,"MEAN_ANOMALY":111.577,"EPHEMERIS_TYPE":0,"CLASSIFICATION_TYPE":"U","NORAD_CAT_ID":58753,"ELEMENT_SET_NO":999,"REV_AT_EPOCH":11858,"BSTAR":0.00031977,"MEAN_MOTION_DOT":4.372e-5,"MEAN_MOTION_DDOT":0},{"OBJECT_NAME":"DELTA 2 R\/B","OBJECT_ID":"1991-028B","EPOCH":"2026-03-09T16:54:47.341440","MEAN_MOTION":12.55574373,"ECCENTRICITY":0.11332323,"INCLINATION":23.9918,"RA_OF_ASC_NODE":235.5778,"ARG_OF_PERICENTER":170.7263,"MEAN_ANOMALY":191.6105,"EPHEMERIS_TYPE":0,"CLASSIFICATION_TYPE":"U","NORAD_CAT_ID":21228,"ELEMENT_SET_NO":999,"REV_AT_EPOCH":59793,"BSTAR":0.00053436572,"MEAN_MOTION_DOT":1.35e-5,"MEAN_MOTION_DDOT":0}]
